CUBEBUG-2 (LO-74)       
1 39440U 13066AA  26160.42661912  .00003357  00000+0  31222-3 0  9992
2 39440  97.8902 109.3723 0059152  54.2261 306.4438 14.93700353675836
FUNCUBE-1 (AO-73)       
1 39444U 13066AE  26160.43303962  .00004901  00000+0  30669-3 0  9995
2 39444  97.8268 131.7174 0034858 227.8994 131.9269 15.09396559678496
UWE-3                   
1 39446U 13066AG  26160.12782108  .00003499  00000+0  30256-3 0  9999
2 39446  97.8686 116.1479 0048769 348.2293  11.7784 14.96959057676378
UNISAT-6                
1 40012U 14033C   26160.40122271  .00002405  00000+0  26157-3 0  9996
2 40012  97.7869 313.2514 0046431  94.2161 266.4364 14.88204191645009
DUCHIFAT-1              
1 40021U 14033M   26160.40712241  .00091547  00000+0  99932-3 0  9994
2 40021  98.0469 218.4842 0004339 129.4692 230.6949 15.63050538654538
QB50P1                  
1 40025U 14033R   26160.50467361  .00007898  00000+0  39023-3 0  9990
2 40025  98.0973 171.1125 0007223 246.0165 114.0312 15.18143870651861
LILACSAT-2              
1 40908U 15049K   26160.59637230  .00016137  00000+0  27744-3 0  9994
2 40908  97.4659 197.1503 0005255 281.9066  78.1597 15.51193031594574
FOX-1A (AO-85)          
1 40967U 15058D   26160.50473677  .00002485  00000+0  22900-3 0  9993
2 40967  64.7758 302.8578 0130003  59.6042 301.7845 14.90932457112423
CAS-2T & KS-1Q          
1 41847U 16066G   26160.48328973  .00001622  00000+0  23478-3 0  9999
2 41847  98.3822 236.3075 0342510 152.7905 209.1703 14.44668740503686
RADFXSAT (FOX-1B)       
1 43017U 17073E   26159.34389375  .00007664  00000+0  33533-3 0  9990
2 43017  97.4721  26.7398 0150895 359.9259   0.1924 15.12571253464059
DIWATA-2B               
1 43678U 18084H   26160.63406906  .00002367  00000+0  19325-3 0  9998
2 43678  98.1174 356.5150 0012075 194.9472 165.1395 15.00416382415084
ES'HAIL 2               
1 43700U 18090A   26160.20434110  .00000161  00000+0  00000+0 0  9998
2 43700   0.0163 288.9745 0001916 188.7115 239.2727  1.00273583 27591
FOX-1CLIFF (AO-95)      
1 43770U 18099N   26160.08109071  .00008954  00000+0  34498-3 0  9995
2 43770  97.4389 220.3580 0008826  27.1898 332.9801 15.26538897411985
ITASAT                  
1 43786U 18099AE  26160.11674282  .00005227  00000+0  25280-3 0  9996
2 43786  97.4032 211.7901 0012983  28.2656 331.9281 15.18954369411686
JY1SAT (JO-97)          
1 43803U 18099AX  26160.13509799  .00014955  00000+0  46531-3 0  9998
2 43803  97.4132 222.9432 0004209 303.3283  56.7556 15.33397143412399
UWE-4                   
1 43880U 18111E   26159.73543038  .00034399  00000+0  71406-3 0  9999
2 43880  97.5854  87.7396 0007084  15.0599 345.0859 15.45597673409471
TIANYAN 01              
1 44881U 19093C   26160.64033169  .00001364  00000+0  15987-3 0  9990
2 44881  97.7529 233.0564 0014975 109.0061 251.2779 14.86510564350294
RS-44 & BREEZE-KM R/B   
1 44909U 19096E   26160.49976325  .00000034  00000+0  88333-4 0  9996
2 44909  82.5217 344.8144 0217822 162.0929 198.8004 12.79748674301360
SALSAT                  
1 46495U 20068K   26160.49232390  .00007245  00000+0  25454-3 0  9991
2 46495  97.8855 163.0891 0008742 339.5990  20.4898 15.29688082314186
XW-3 (CAS-9)            
1 50466U 21131B   26160.62673997  .00000482  00000+0  16254-3 0  9997
2 50466  98.4971 253.0574 0005268 114.2262 245.9478 14.41351092234026
GREENCUBE (IO-117)      
1 53109U 22080E   26152.46502029 -.00000003  00000+0  00000+0 0  9996
2 53109  70.1435 303.7143 0008869 293.3663  66.6064  6.42583280 91055
UMKA 1 (RS40S)          
1 57172U 23091G   26160.52714999  .00005472  00000+0  25129-3 0  9997
2 57172  97.5055 219.2542 0013874 141.6738 218.5486 15.20728331162840
CUBESX-HSE 3 (RS42S)    
1 57178U 23091N   26160.52746242  .00012684  00000+0  42469-3 0  9998
2 57178  97.5095 226.0188 0012150 118.3158 241.9310 15.31019782163252
MONITOR-3 (RS58S)       
1 57180U 23091Q   26160.53514910  .00009956  00000+0  36977-3 0  9992
2 57180  97.5088 223.9258 0013040 124.3994 235.8480 15.27685990163126
MONITOR-4 (RS57S)       
1 57182U 23091S   26160.44914730  .00009281  00000+0  34396-3 0  9992
2 57182  97.5082 223.8099 0013037 125.0080 235.2384 15.27777428163118
MONITOR-2 (RS39S)       
1 57184U 23091U   26160.53883538  .00004266  00000+0  20774-3 0  9998
2 57184  97.5078 218.8715 0012422 134.6320 225.5929 15.18838681162793
SVYATOBOR 1 (RS60S)     
1 57187U 23091X   26160.52119486  .00008473  00000+0  32703-3 0  9993
2 57187  97.5093 224.2964 0010873 117.3158 242.9189 15.26483432163145
VIZARD-METEO (RS38S)    
1 57189U 23091Z   26160.52504840  .00015332  00000+0  44197-3 0  9999
2 57189  97.5095 229.8581 0008655 100.5439 259.6780 15.35780089163517
POLYTECH-UNIVERSE 3 (R*)
1 57191U 23091AB  26160.43530168  .00004859  00000+0  23446-3 0  9990
2 57191  97.5052 218.2732 0016385 151.7216 208.4911 15.19038195162774
UTMN 2 (RS27S)          
1 57203U 23091AP  26160.54924757  .00011969  00000+0  39093-3 0  9992
2 57203  97.5090 227.6654 0009471 106.4807 253.7475 15.31862137163378
